[{"OBJECT_NAME":"STARLINK-4581","OBJECT_ID":"2022-101BB","EPOCH":"2026-03-09T04:43:58.363392","MEAN_MOTION":15.08835839,"ECCENTRICITY":0.00014929,"INCLINATION":53.2184,"RA_OF_ASC_NODE":56.132,"ARG_OF_PERICENTER":93.2987,"MEAN_ANOMALY":266.8176,"EPHEMERIS_TYPE":0,"CLASSIFICATION_TYPE":"U","NORAD_CAT_ID":53576,"ELEMENT_SET_NO":999,"REV_AT_EPOCH":19719,"BSTAR":-3.6941512e-5,"MEAN_MOTION_DOT":-8.76e-6,"MEAN_MOTION_DDOT":0},{"OBJECT_NAME":"THORAD DELTA 1 DEB","OBJECT_ID":"1974-089BJ","EPOCH":"2026-03-09T17:26:50.938944","MEAN_MOTION":14.89612235,"ECCENTRICITY":0.00930761,"INCLINATION":102.9252,"RA_OF_ASC_NODE":157.5149,"ARG_OF_PERICENTER":255.4838,"MEAN_ANOMALY":103.6021,"EPHEMERIS_TYPE":0,"CLASSIFICATION_TYPE":"U","NORAD_CAT_ID":8301,"ELEMENT_SET_NO":999,"REV_AT_EPOCH":53411,"BSTAR":0.014617981,"MEAN_MOTION_DOT":0.00154551,"MEAN_MOTION_DDOT":0}]
